{"type": "FeatureCollection", "features": [ {"type": "Feature", "properties": {"norad_id": 66668, "name": "TRANSPORTER-15C", "group": "last-30-days", "lat": 61.822181211990454, "lon": -92.84542477347792, "alt_km": 502.0116453289547, "timestamp": "2025-12-27T14:26:29.241726+00:00", "meta": {"OBJECT_NAME": "TRANSPORTER-15C", "OBJECT_ID": "2025-276C", "EPOCH": "2025-12-26T12:40:51.383136", "MEAN_MOTION": 15.21988406, "ECCENTRICITY": 0.0016178, "INCLINATION": 97.4332, "RA_OF_ASC_NODE": 71.9879, "ARG_OF_PERICENTER": 258.9437, "MEAN_ANOMALY": 100.9979, "EPHEMERIS_TYPE": 0, "CLASSIFICATION_TYPE": "U", "NORAD_CAT_ID": 66668, "ELEMENT_SET_NO": 999, "REV_AT_EPOCH": 421, "BSTAR": 0.00071782, "MEAN_MOTION_DOT": 0.00016393, "MEAN_MOTION_DDOT": 0}, "tle": {"line1": "1 66668U 25276C   25360.52837249  .00016393  00000+0  71782-3 0  9999", "line2": "2 66668  97.4332  71.9879 0016178 258.9437 100.9979 15.21988406  4210"}}, "geometry": {"type": "Point", "coordinates": [-92.84542477347792, 61.822181211990454]}}, {"type": "Feature", "properties": {"norad_id": 66669, "name": "TRANSPORTER-15D", "group": "last-30-days", "lat": 82.25507463788223, "lon": -33.35902160309653, "alt_km": 510.6035724496169, "timestamp": "2025-12-27T14:26:29.241736+00:00", "meta": {"OBJECT_NAME": "TRANSPORTER-15D", "OBJECT_ID": "2025-276D", "EPOCH": "2025-12-26T04:48:12.178080", "MEAN_MOTION": 15.17501415, "ECCENTRICITY": 0.000747, "INCLINATION": 97.4282, "RA_OF_ASC_NODE": 71.6689, "ARG_OF_PERICENTER": 258.0077, "MEAN_ANOMALY": 102.032, "EPHEMERIS_TYPE": 0, "CLASSIFICATION_TYPE": "U", "NORAD_CAT_ID": 66669, "ELEMENT_SET_NO": 999, "REV_AT_EPOCH": 416, "BSTAR": 0.0012, "MEAN_MOTION_DOT": 0.00024063, "MEAN_MOTION_DDOT": 0}, "tle": {"line1": "1 66669U 25276D   25360.20014095  .00024063  00000+0  12000-2 0  9991", "line2": "2 66669  97.4282  71.6689 0007470 258.0077 102.0320 15.17501415  4160"}}, "geometry": {"type": "Point", "coordinates": [-33.35902160309653, 82.25507463788223]}}, {"type": "Feature", "properties": {"norad_id": 66670, "name": "HUNITY", "group": "last-30-days", "lat": 82.17777880609385, "lon": 1.2679469879934595, "alt_km": 510.713632817472, "timestamp": "2025-12-27T14:26:29.241750+00:00", "meta": {"OBJECT_NAME": "HUNITY", "OBJECT_ID": "2025-276E", "EPOCH": "2025-12-26T19:03:55.659744", "MEAN_MOTION": 15.1744087, "ECCENTRICITY": 0.0007097, "INCLINATION": 97.4293, "RA_OF_ASC_NODE": 72.2531, "ARG_OF_PERICENTER": 255.1008, "MEAN_ANOMALY": 104.944, "EPHEMERIS_TYPE": 0, "CLASSIFICATION_TYPE": "U", "NORAD_CAT_ID": 66670, "ELEMENT_SET_NO": 999, "REV_AT_EPOCH": 425, "BSTAR": 0.0013401, "MEAN_MOTION_DOT": 0.00026842, "MEAN_MOTION_DDOT": 0}, "tle": {"line1": "1 66670U 25276E   25360.79439421  .00026842  00000+0  13401-2 0  9994", "line2": "2 66670  97.4293  72.2531 0007097 255.1008 104.9440 15.17440870  4255"}}, "geometry": {"type": "Point", "coordinates": [1.2679469879934595, 82.17777880609385]}}, {"type": "Feature", "properties": {"norad_id": 66671, "name": "TRANSPORTER-15F", "group": "last-30-days", "lat": 80.66259594319817, "lon": -54.26112531610727, "alt_km": 509.3715173334267, "timestamp": "2025-12-27T14:26:29.241770+00:00", "meta": {"OBJECT_NAME": "TRANSPORTER-15F", "OBJECT_ID": "2025-276F", "EPOCH": "2025-12-27T06:06:24.962112", "MEAN_MOTION": 15.17228263, "ECCENTRICITY": 0.00052026, "INCLINATION": 97.4416, "RA_OF_ASC_NODE": 72.7498, "ARG_OF_PERICENTER": 232.8596, "MEAN_ANOMALY": 127.2163, "EPHEMERIS_TYPE": 0, "CLASSIFICATION_TYPE": "U", "NORAD_CAT_ID": 66671, "ELEMENT_SET_NO": 999, "REV_AT_EPOCH": 432, "BSTAR": 0.00068211425, "MEAN_MOTION_DOT": 0.00013518, "MEAN_MOTION_DDOT": 0}, "tle": {"line1": "1 66671U 25276F   25361.25445558  .00013518  00000+0  68211-3 0  9991", "line2": "2 66671  97.4416  72.7498 0005202 232.8596 127.2163 15.17228263  4328"}}, "geometry": {"type": "Point", "coordinates": [-54.26112531610727, 80.66259594319817]}}, {"type": "Feature", "properties": {"norad_id": 66672, "name": "TRANSPORTER-15G", "group": "last-30-days", "lat": 59.564967987543014, "lon": 60.217255681531974, "alt_km": 513.9163401177175, "timestamp": "2025-12-27T14:26:29.241789+00:00", "meta": {"OBJECT_NAME": "TRANSPORTER-15G", "OBJECT_ID": "2025-276G", "EPOCH": "2025-12-27T04:40:31.059552", "MEAN_MOTION": 15.16669771, "ECCENTRICITY": 0.00055615, "INCLINATION": 97.4388, "RA_OF_ASC_NODE": 72.6674, "ARG_OF_PERICENTER": 230.6749, "MEAN_ANOMALY": 129.3992, "EPHEMERIS_TYPE": 0, "CLASSIFICATION_TYPE": "U", "NORAD_CAT_ID": 66672, "ELEMENT_SET_NO": 999, "REV_AT_EPOCH": 431, "BSTAR": 0.00049545863, "MEAN_MOTION_DOT": 9.641e-05, "MEAN_MOTION_DDOT": 0}, "tle": {"line1": "1 66672U 25276G   25361.19480393  .00009641  00000+0  49546-3 0  9993", "line2": "2 66672  97.4388  72.6674 0005561 230.6749 129.3992 15.16669771  4310"}}, "geometry": {"type": "Point", "coordinates": [60.217255681531974, 59.564967987543014]}}, {"type": "Feature", "properties": {"norad_id": 66673, "name": "TRANSPORTER-15H", "group": "last-30-days", "lat": 46.07762198465434, "lon": -99.12648475320516, "alt_km": 516.9952386593113, "timestamp": "2025-12-27T14:26:29.241799+00:00", "meta": {"OBJECT_NAME": "TRANSPORTER-15H", "OBJECT_ID": "2025-276H", "EPOCH": "2025-12-27T04:22:33.700800", "MEAN_MOTION": 15.20573924, "ECCENTRICITY": 0.00217795, "INCLINATION": 97.4348, "RA_OF_ASC_NODE": 72.6673, "ARG_OF_PERICENTER": 291.1345, "MEAN_ANOMALY": 68.7563, "EPHEMERIS_TYPE": 0, "CLASSIFICATION_TYPE": "U", "NORAD_CAT_ID": 66673, "ELEMENT_SET_NO": 999, "REV_AT_EPOCH": 431, "BSTAR": -0.05604504, "MEAN_MOTION_DOT": -0.0112796, "MEAN_MOTION_DDOT": 0}, "tle": {"line1": "1 66673U 25276H   25361.18233450 -.01127960  00000+0 -56045-1 0  9991", "line2": "2 66673  97.4348  72.6673 0021779 291.1345  68.7563 15.20573924  4318"}}, "geometry": {"type": "Point", "coordinates": [-99.12648475320516, 46.07762198465434]}}, {"type": "Feature", "properties": {"norad_id": 66674, "name": "TRANSPORTER-15J", "group": "last-30-days", "lat": 70.62755510638846, "lon": 51.25658233411139, "alt_km": 512.0535845093027, "timestamp": "2025-12-27T14:26:29.241811+00:00", "meta": {"OBJECT_NAME": "TRANSPORTER-15J", "OBJECT_ID": "2025-276J", "EPOCH": "2025-12-27T06:12:29.387808", "MEAN_MOTION": 15.16792052, "ECCENTRICITY": 0.00051102, "INCLINATION": 97.4367, "RA_OF_ASC_NODE": 72.7273, "ARG_OF_PERICENTER": 234.6973, "MEAN_ANOMALY": 125.3783, "EPHEMERIS_TYPE": 0, "CLASSIFICATION_TYPE": "U", "NORAD_CAT_ID": 66674, "ELEMENT_SET_NO": 999, "REV_AT_EPOCH": 432, "BSTAR": 0.00046326632, "MEAN_MOTION_DOT": 9.041e-05, "MEAN_MOTION_DDOT": 0}, "tle": {"line1": "1 66674U 25276J   25361.25867347  .00009041  00000+0  46327-3 0  9998", "line2": "2 66674  97.4367  72.7273 0005110 234.6973 125.3783 15.16792052  4322"}}, "geometry": {"type": "Point", "coordinates": [51.25658233411139, 70.62755510638846]}}, {"type": "Feature", "properties": {"norad_id": 66675, "name": "TRANSPORTER-15K", "group": "last-30-days", "lat": 73.15704897855164, "lon": 47.50491678191048, "alt_km": 520.6071872632065, "timestamp": "2025-12-27T14:26:29.241822+00:00", "meta": {"OBJECT_NAME": "TRANSPORTER-15K", "OBJECT_ID": "2025-276K", "EPOCH": "2025-12-26T22:14:18.407616", "MEAN_MOTION": 15.14108486, "ECCENTRICITY": 0.0013986, "INCLINATION": 97.4377, "RA_OF_ASC_NODE": 72.4107, "ARG_OF_PERICENTER": 151.0165, "MEAN_ANOMALY": 209.1846, "EPHEMERIS_TYPE": 0, "CLASSIFICATION_TYPE": "U", "NORAD_CAT_ID": 66675, "ELEMENT_SET_NO": 999, "REV_AT_EPOCH": 427, "BSTAR": -0.095744, "MEAN_MOTION_DOT": -0.01588729, "MEAN_MOTION_DDOT": 0}, "tle": {"line1": "1 66675U 25276K   25360.92660194 -.01588729  00000+0 -95744-1 0  9996", "line2": "2 66675  97.4377  72.4107 0013986 151.0165 209.1846 15.14108486  4277"}}, "geometry": {"type": "Point", "coordinates": [47.50491678191048, 73.15704897855164]}}, {"type": "Feature", "properties": {"norad_id": 66676, "name": "TRANSPORTER-15L", "group": "last-30-days", "lat": 81.32294268893199, "lon": -48.05021106428832, "alt_km": 505.5013966142433, "timestamp": "2025-12-27T14:26:29.241832+00:00", "meta": {"OBJECT_NAME": "TRANSPORTER-15L", "OBJECT_ID": "2025-276L", "EPOCH": "2025-12-27T06:08:24.692640", "MEAN_MOTION": 15.2229433, "ECCENTRICITY": 0.00247958, "INCLINATION": 97.4375, "RA_OF_ASC_NODE": 72.7381, "ARG_OF_PERICENTER": 254.3833, "MEAN_ANOMALY": 105.4667, "EPHEMERIS_TYPE": 0, "CLASSIFICATION_TYPE": "U", "NORAD_CAT_ID": 66676, "ELEMENT_SET_NO": 999, "REV_AT_EPOCH": 432, "BSTAR": 0.038399245, "MEAN_MOTION_DOT": 0.00963103, "MEAN_MOTION_DDOT": 0}, "tle": {"line1": "1 66676U 25276L   25361.25584135  .00963103  00000+0  38399-1 0  9997", "line2": "2 66676  97.4375  72.7381 0024795 254.3833 105.4667 15.22294330  4320"}}, "geometry": {"type": "Point", "coordinates": [-48.05021106428832, 81.32294268893199]}}, {"type": "Feature", "properties": {"norad_id": 66677, "name": "TRANSPORTER-15M", "group": "last-30-days", "lat": 51.09524249610346, "lon": -97.59480245675998, "alt_km": 513.4255621217753, "timestamp": "2025-12-27T14:26:29.241844+00:00", "meta": {"OBJECT_NAME": "TRANSPORTER-15M", "OBJECT_ID": "2025-276M", "EPOCH": "2025-12-27T05:57:40.387104", "MEAN_MOTION": 15.16984783, "ECCENTRICITY": 0.00064659, "INCLINATION": 97.4375, "RA_OF_ASC_NODE": 72.7432, "ARG_OF_PERICENTER": 249.9132, "MEAN_ANOMALY": 110.1406, "EPHEMERIS_TYPE": 0, "CLASSIFICATION_TYPE": "U", "NORAD_CAT_ID": 66677, "ELEMENT_SET_NO": 999, "REV_AT_EPOCH": 432, "BSTAR": -0.021863474, "MEAN_MOTION_DOT": -0.00408631, "MEAN_MOTION_DDOT": 0}, "tle": {"line1": "1 66677U 25276M   25361.24838411 -.00408631  00000+0 -21863-1 0  9996", "line2": "2 66677  97.4375  72.7432 0006465 249.9132 110.1406 15.16984783  4329"}}, "geometry": {"type": "Point", "coordinates": [-97.59480245675998, 51.09524249610346]}}]}